{
    "ORBVIEW 2 (SEASTAR)": [
        "1 24883U 97037A   23353.34258046  .00000546  00000+0  21080-3 0  9997",
        "2 24883  98.7486 125.7854 0001233 301.1157  58.9906 14.34286819392117"
    ],
    "ISS (ZARYA)": [
        "1 25544U 98067A   23353.57231559  .00017152  00000+0  30185-3 0  9998",
        "2 25544  51.6405 130.2575 0002166  35.8241  41.4606 15.50561064430544"
    ],
    "CZ-4B R/B": [
        "1 29507U 06046C   23353.56995230  .00004894  00000+0  33641-3 0  9998",
        "2 29507  97.6684  25.7208 0042112 170.0578 190.1492 15.05676066937521"
    ],
    "OKEAN-O": [
        "1 25860U 99039A   23353.14533187  .00000946  00000+0  13845-3 0  9991",
        "2 25860  98.0646  40.6171 0001887  89.7191 270.4235 14.77960757314413"
    ],
    "DELTA 2 R/B": [
        "1 25876U 99041E   23353.13860616  .00000943  00000+0  19708-3 0  9991",
        "2 25876  51.7636 292.1509 0521671 121.0491 244.2732 14.07203604248551"
    ],
    "HELIOS 1B": [
        "1 25977U 99064A   23353.61746898  .00001121  00000+0  14214-3 0  9992",
        "2 25977  98.2674 214.0095 0001759 129.4996 230.6372 14.83837836564831"
    ],
    "TERRA": [
        "1 25994U 99068A   23353.53405236  .00000708  00000+0  15859-3 0  9990",
        "2 25994  98.0741  57.1491 0001787 166.2620 304.7854 14.59491981276695"
    ],
    "TITAN 4B R/B": [
        "1 26474U 00047B   23353.57448156  .00004885  00000+0  38639-3 0  9996",
        "2 26474  67.9920 145.6184 0054392 231.5026 128.1235 15.00322365270850"
    ],
    "ENVISAT": [
        "1 27386U 02009A   23353.53631001  .00000222  00000+0  86326-4 0  9996",
        "2 27386  98.2580 316.1786 0001260  83.6083  29.1697 14.38466258142535"
    ],
    "IDEFIX & ARIANE 42P R/B": [
        "1 27422U 02021B   23353.41918900  .00000478  00000+0  20237-3 0  9995",
        "2 27422  98.5113 289.9243 0013162  58.8173 301.4298 14.29894225128035"
    ],
    "AQUA": [
        "1 27424U 02022A   23353.59381260  .00001460  00000+0  32323-3 0  9991",
        "2 27424  98.3098 297.6188 0001105  44.1606   6.2155 14.58669439150344"
    ],
    "MIDORI II (ADEOS-II)": [
        "1 27597U 02056A   23353.43391857  .00000507  00000+0  22182-3 0  9998",
        "2 27597  98.6716 296.1090 0000980 133.8341 226.2922 14.28125546 94451"
    ],
    "H-2A R/B": [
        "1 43682U 18084L   23353.59958125  .00007070  00000+0  41489-3 0  9996",
        "2 43682  98.8731  47.0892 0047079 250.0791 109.5359 15.11206134282190"
    ],
    "CZ-2C R/B": [
        "1 53131U 22082D   23353.56127990  .00066525  00000+0  66047-3 0  9991",
        "2 53131  97.3322  13.7798 0021968 272.8115  87.0631 15.65253916 80600"
    ],
    "ARIANE 5 R/B": [
        "1 28499U 04049H   23353.34360830  .00001469  00000+0  18011-3 0  9995",
        "2 28499  98.1588 122.5292 0090443  97.6707 263.4788 14.81890759 25481"
    ],
    "CZ-2D R/B": [
        "1 28738U 05024B   23353.53814016  .00010822  00000+0  48226-3 0  9990",
        "2 28738  97.3608 350.4222 0011594  65.0576 295.1863 15.21540678 15155"
    ],
    "SUZAKU (ASTRO-EII)": [
        "1 28773U 05025A   23353.06237500  .00020853  00000+0  58643-3 0  9994",
        "2 28773  31.3887 278.3992 0003291 234.8364 125.1981 15.35293196 19049"
    ],
    "ALOS (DAICHI)": [
        "1 28931U 06002A   23353.47258136  .00001843  00000+0  35353-3 0  9990",
        "2 28931  98.0144 305.7856 0001911  54.7927 305.3455 14.64879800954517"
    ],
    "RESURS-DK 1": [
        "1 29228U 06021A   23353.56569839  .00002907  00000+0  20600-3 0  9997",
        "2 29228  69.9337 164.5192 0007423 284.4503  75.5835 15.05964376965113"
    ],
    "GENESIS 1": [
        "1 29252U 06029A   23353.56620254  .00014687  00000+0  48479-3 0  9993",
        "2 29252  64.5194  52.3410 0003606 287.1652  72.9083 15.31621868962863"
    ],
    "COSMO-SKYMED 1": [
        "1 31598U 07023A   23353.54541038  .00000844  00000+0  11249-3 0  9999",
        "2 31598  97.8850 174.3488 0001233  84.4720 275.6633 14.82160404894366"
    ],
    "GENESIS 2": [
        "1 31789U 07028A   23353.56154781  .00017009  00000+0  56860-3 0  9992",
        "2 31789  64.4925  97.2051 0043361 237.4093 122.2846 15.30232140909722"
    ],
    "COSMOS 2428": [
        "1 31792U 07029A   23353.56925877  .00000444  00000+0  26542-3 0  9998",
        "2 31792  70.9406 105.6969 0011482 294.3169  65.6752 14.12640406849534"
    ],
    "KORONAS-FOTON": [
        "1 33504U 09003A   23353.57484359  .00007632  00000+0  32154-3 0  9993",
        "2 33504  82.4393  25.0955 0017581 151.0191 209.2025 15.23039001821502"
    ],
    "CUSAT 2 & FALCON 9 R/B": [
        "1 39271U 13055G   23353.30136098  .00048256 -26837-6  72074-3 0  9993",
        "2 39271  80.9429 294.0941 0380291 183.6619 176.1811 15.01271140538061"
    ],
    "SHIJIAN-16 (SJ-16)": [
        "1 39358U 13057A   23353.56238878  .00002815  00000+0  30935-3 0  9995",
        "2 39358  74.9742 275.7416 0019655 273.0424  86.8513 14.87909037550675"
    ],
    "SL-4 R/B": [
        "1 39679U 14021B   23352.96940267  .00010668  00000+0  43149-3 0  9994",
        "2 39679  51.6112 264.7384 0146705  78.5909 283.1503 15.15918271532245"
    ],
    "ALOS-2": [
        "1 39766U 14029A   23353.53048532  .00000052  00000+0  13869-4 0  9990",
        "2 39766  97.9228  87.7722 0001467 102.1594 257.9782 14.79478100516938"
    ],
    "SL-27 R/B": [
        "1 40354U 14084B   23353.55161817  .00024332  00000+0  28777-3 0  9990",
        "2 40354  74.7303 239.3200 0024007 146.2447 214.0310 15.60804983505849"
    ],
    "YAOGAN-29": [
        "1 41038U 15069A   23353.58415402  .00000696  00000+0  95866-4 0  9990",
        "2 41038  98.0612   1.9179 0003301  99.4907 260.6678 14.81400962435727"
    ],
    "ASTRO-H (HITOMI)": [
        "1 41337U 16012A   23353.49538555  .00003827  00000+0  27621-3 0  9998",
        "2 41337  31.0008 161.6491 0011302 138.1145 222.0357 15.02310585429815"
    ],
    "HXMT (HUIYAN)": [
        "1 42758U 17034A   23353.58222577  .00006479  00000+0  35545-3 0  9995",
        "2 42758  43.0134 195.0789 0001534 149.1501 210.9436 15.14713184359441"
    ],
    "SAOCOM 1A": [
        "1 43641U 18076A   23353.55380657  .00000744  00000+0  99974-4 0  9991",
        "2 43641  97.8845 177.3792 0001367  90.7681 269.3688 14.82162290281216"
    ],
    "SAOCOM 1B": [
        "1 46265U 20059A   23353.58501101  .00000726  00000+0  97742-4 0  9993",
        "2 46265  97.8849 176.4946 0001367  91.6084 268.5285 14.82151129178604"
    ],
    "CSS (TIANHE)": [
        "1 48274U 21035A   23353.58276422  .00026849  00000+0  28141-3 0  9995",
        "2 48274  41.4701 106.5658 0006031  11.4607 348.6369 15.63758468150822"
    ],
    "COSMOS 2550": [
        "1 48865U 21056A   23353.26994633  .00000357  00000+0  16695-4 0  9998",
        "2 48865  67.1412 335.6390 0008363 269.5274  90.4922 15.33829090139029"
    ],
    "2022-019U": [
        "1 51842U 22019U   23353.54980359  .00045070  00000+0  87840-3 0  9998",
        "2 51842  97.5202  85.4027 0042389  37.8190 322.6024 15.46401071100983"
    ],
    "XRISM": [
        "1 57800U 23137A   23353.56305908  .00006188  00000+0  49257-3 0  9990",
        "2 57800  31.0041  80.2680 0010230 218.3952 141.5956 14.98945354 15460"
    ]
}